1 26871U 01031A   12098.24911666 -.00000294  00000-0  10000-3 0  5316
2 26871 002.1006 073.7194 0003845 333.2612 178.3161 01.00259766 39281